{
  "route": "KLAX,KSFO",
  "generatedAt": "2024-02-12T15:30:00Z",
  "airports": [
    {
      "icao": "KLAX",
      "icaoCode": "KLAX",
      "name": "Los Angeles Intl",
      "latitude": 33.9416,
      "longitude": -118.4085,
      "flightCategory": "VFR",
      "metar": "KLAX 121530Z 25008KT 10SM FEW020 18/09 A3005",
      "taf": "KLAX 121120Z 1212/1318 26006KT P6SM FEW020"
    },
    {
      "icao": "KSFO",
      "icaoCode": "KSFO",
      "name": "San Francisco Intl",
      "latitude": 37.6213,
      "longitude": -122.379,
      "flightCategory": "MVFR",
      "metar": "KSFO 121556Z 20012KT 5SM BR BKN008 15/13 A2998",
      "taf": "KSFO 121130Z 1212/1318 21012KT P6SM SCT010"
    }
  ],
  "metarsByIcao": {
    "KLAX": {
      "rawText": "KLAX 121530Z 25008KT 10SM FEW020 18/09 A3005"
    },
    "KSFO": {
      "rawText": "KSFO 121556Z 20012KT 5SM BR BKN008 15/13 A2998"
    }
  },
  "tafsByIcao": {
    "KLAX": {
      "rawTAF": "KLAX 121120Z 1212/1318 26006KT P6SM FEW020"
    },
    "KSFO": {
      "rawTAF": "KSFO 121130Z 1212/1318 21012KT P6SM SCT010"
    }
  },
  "sigmets": [
    {
      "id": "SIG1",
      "phenomenon": "TURB",
      "geometry": {
        "type": "Polygon",
        "coordinates": [
          [
            [-123.0, 36.5],
            [-122.2, 36.8],
            [-121.8, 37.3],
            [-122.7, 37.6],
            [-123.0, 36.5]
          ]
        ]
      },
      "intensity": "MOD"
    }
  ],
  "pireps": [
    {
      "id": "PIRE1",
      "latitude": 36.2,
      "longitude": -121.5,
      "altitudeFt": 12000,
      "severity": "MOD",
      "phenomenon": ["TURB"],
      "rawText": "UUA /OV SNS180030/TM 1523/FL120/TP BE36/TB MOD"
    }
  ],
  "hazards": {
    "sigmets": {
      "active": [
        {
          "id": "SIG1",
          "phenomenon": "TURB",
          "geometry": {
            "type": "Polygon",
            "coordinates": [
              [
                [-123.0, 36.5],
                [-122.2, 36.8],
                [-121.8, 37.3],
                [-122.7, 37.6],
                [-123.0, 36.5]
              ]
            ]
          },
          "intensity": "MOD"
        }
      ]
    },
    "pireps": {
      "recent": [
        {
          "id": "PIRE1",
          "latitude": 36.2,
          "longitude": -121.5,
          "altitudeFt": 12000,
          "severity": "MOD",
          "phenomenon": ["TURB"]
        }
      ]
    }
  },
  "aiSummary": {
    "routeSummary": "Smooth flight expected between KLAX and KSFO with moderate turbulence reports near Salinas.",
    "keyFindings": [
      "VFR departure with scattered coastal clouds.",
      "MVFR arrival with low ceilings improving by 18Z."
    ],
    "overallConditions": "MARGINAL",
    "confidence": "MEDIUM"
  }
}
